{"fetched_at":"2026-07-17T06:37:53.254Z","source":"https://celestrak.org/NORAD/elements/gp.php?GROUP=planet&FORMAT=JSON","constellation":"superdove","records":[{"OBJECT_NAME":"FLOCK 4H-34","OBJECT_ID":"2025-276BZ","EPOCH":"2026-07-16T20:41:27.553344","CLASSIFICATION_TYPE":"U","MEAN_MOTION":15.20852365,"ECCENTRICITY":0.0002783,"INCLINATION":97.4226,"RA_OF_ASC_NODE":271.2499,"ARG_OF_PERICENTER":165.6843,"MEAN_ANOMALY":194.4472,"EPHEMERIS_TYPE":0,"NORAD_CAT_ID":66737,"ELEMENT_SET_NO":999,"REV_AT_EPOCH":3419,"BSTAR":0.00017796,"MEAN_MOTION_DOT":0.0000386,"MEAN_MOTION_DDOT":0},{"OBJECT_NAME":"FLOCK 4H-35","OBJECT_ID":"2025-276CA","EPOCH":"2026-07-16T10:37:55.531776","CLASSIFICATION_TYPE":"U","MEAN_MOTION":15.20963315,"ECCENTRICITY":0.0002696,"INCLINATION":97.4188,"RA_OF_ASC_NODE":270.7744,"ARG_OF_PERICENTER":149.3804,"MEAN_ANOMALY":210.7589,"EPHEMERIS_TYPE":0,"NORAD_CAT_ID":66738,"ELEMENT_SET_NO":999,"REV_AT_EPOCH":3417,"BSTAR":0.00015132,"MEAN_MOTION_DOT":0.00003283,"MEAN_MOTION_DDOT":0},{"OBJECT_NAME":"FLOCK 4H-36","OBJECT_ID":"2025-276CB","EPOCH":"2026-07-16T03:39:56.737728","CLASSIFICATION_TYPE":"U","MEAN_MOTION":15.20725723,"ECCENTRICITY":0.0002559,"INCLINATION":97.4238,"RA_OF_ASC_NODE":270.5437,"ARG_OF_PERICENTER":180.4888,"MEAN_ANOMALY":179.6345,"EPHEMERIS_TYPE":0,"NORAD_CAT_ID":66739,"ELEMENT_SET_NO":999,"REV_AT_EPOCH":3483,"BSTAR":0.00016989,"MEAN_MOTION_DOT":0.00003668,"MEAN_MOTION_DDOT":0}]}
